LINGQIAO VIDEO A        
1 40959U 15057B   26166.19427090  .00000254  00000+0  42528-4 0  9993
2 40959  97.6612 161.0941 0015214 277.6484  82.3000 14.77389401575119
LINGQIAO VIDEO B        
1 40960U 15057C   26166.23880917  .00000920  00000+0  13567-3 0  9991
2 40960  97.6578 162.3007 0015326 277.4500  82.4970 14.77498775575167
JILIN-1                 
1 40961U 15057D   26166.18552988  .00000706  00000+0  10400-3 0  9995
2 40961  97.6507 165.6516 0015311 270.1718  89.7739 14.78157397575319
FOX-1A (AO-85)          
1 40967U 15058D   26166.07201661  .00002230  00000+0  20683-3 0  9997
2 40967  64.7762 285.5569 0130328  57.4109 303.9507 14.90961275113256
SINOD-D 1               
1 40968U 15058E   26165.60471961  .00003177  00000+0  25974-3 0  9997
2 40968  64.7761 266.9995 0118880  54.1051 307.1029 14.95891927116272
ELEKTRO-L 2             
1 41105U 15074A   26165.97095832 -.00000118  00000+0  00000+0 0  9990
2 41105   6.6873  70.5494 0000874 244.3322 283.4193  1.00270489 38485
DAMPE                   
1 41173U 15078A   26166.07662891  .00001173  00000+0  41967-4 0  9999
2 41173  97.4552 171.5330 0013828  83.8102 276.4713 15.30780475584225
ORBCOMM FM110           
1 41182U 15081D   26165.98085328  .00000603  00000+0  16368-3 0  9999
2 41182  47.0033  11.8752 0002568  62.5466 297.5681 14.58877578557307
ORBCOMM FM112           
1 41184U 15081F   26166.01970501  .00000537  00000+0  14972-3 0  9997
2 41184  46.9994 280.4970 0003606 208.7435 151.3253 14.58901548558637
ORBCOMM FM113           
1 41185U 15081G   26165.58533963  .00000343  00000+0  10887-3 0  9992
2 41185  47.0013 282.9257 0002139 214.6325 145.4422 14.58856169558552
ORBCOMM FM108           
1 41187U 15081J   26165.54775661  .00000303  00000+0  10032-3 0  9991
2 41187  47.0035 194.6770 0002809 212.6751 147.3961 14.58867428559697
ORBCOMM FM117           
1 41188U 15081K   26165.78720742  .00000279  00000+0  95337-4 0  9992
2 41188  46.9995 192.1789 0003366 215.0215 145.0450 14.58863849559775
ORBCOMM FM116           
1 41189U 15081L   26166.04162955  .00000560  00000+0  15455-3 0  9994
2 41189  47.0026 280.7669 0000652  46.7508 313.3432 14.58880501558620
HORYU-4                 
1 41340U 16012D   26165.49642719  .00399139  56274-4  10359-2 0  9996
2 41340  30.9847  98.7619 0004716 253.7574 106.2569 15.93820636570381
ZIYUAN 3-02 (ZY 3-02)   
1 41556U 16033A   26166.15089142  .00005144  00000+0  23157-3 0  9999
2 41556  97.3840 241.9645 0011230 297.8927  62.1171 15.21465216557677
CARTOSAT-2C             
1 41599U 16040A   26166.15040332  .00004568  00000+0  21935-3 0  9993
2 41599  97.4491 226.1561 0010451 137.4868 222.7177 15.19305911553405
LAPAN-A3                
1 41603U 16040E   26166.23306535  .00003011  00000+0  96388-4 0  9995
2 41603  97.1485 162.4429 0011128  32.3369 327.8554 15.33093140554510
GAOFEN-3                
1 41727U 16049A   26166.21076961  .00000000  00000+0  13132-4 0  9997
2 41727  98.4006 174.0264 0001348  99.8569 260.2773 14.42215291518367
CAS-2T & KS-1Q          
1 41847U 16066G   26166.16278910  .00001557  00000+0  22513-3 0  9991
2 41847  98.3821 241.9222 0342731 135.6008 227.3214 14.44688208504502
YUNHAI-1 01             
1 41857U 16068A   26166.14107442  .00000268  00000+0  11462-3 0  9992
2 41857  98.5826 177.1669 0006243  48.3351 311.8366 14.32704427501537
RESOURCESAT-2A          
1 41877U 16074A   26166.17047973  .00000191  00000+0  10722-3 0  9999
2 41877  98.7533 239.6909 0003334  88.0101 272.1458 14.21616346494014
TANSAT                  
1 41898U 16081A   26166.19242113  .00000415  00000+0  96997-4 0  9993
2 41898  98.5356 166.3908 0019694 318.7553  41.2158 14.59950146504332
JILIN-1 03              
1 41914U 17002B   26166.07848216  .00011979  00000+0  28711-3 0  9994
2 41914  97.1939 173.1926 0006541 160.9158 199.2335 15.41533226521534
CARTOSAT-2D             
1 41948U 17008A   26166.18254427  .00004722  00000+0  22676-3 0  9996
2 41948  97.4112 225.5257 0003792 238.3709 121.7156 15.19321882517278
